{
    "links": {
        "self": "http://www.neowsapp.com/rest/v1/neo/54051100?api_key=iIulBulltgU6a56xZRHN4H3l9WmuAYTsLGpBGhQ2"
    },
    "id": "54051100",
    "neo_reference_id": "54051100",
    "name": "(2020 PY4)",
    "designation": "2020 PY4",
    "nasa_jpl_url": "http://ssd.jpl.nasa.gov/sbdb.cgi?sstr=54051100",
    "absolute_magnitude_h": 21.292,
    "estimated_diameter": {
        "kilometers": {
            "estimated_diameter_min": 0.146607091,
            "estimated_diameter_max": 0.3278234215
        },
        "meters": {
            "estimated_diameter_min": 146.6070910371,
            "estimated_diameter_max": 327.8234215425
        },
        "miles": {
            "estimated_diameter_min": 0.0910973948,
            "estimated_diameter_max": 0.2036999673
        },
        "feet": {
            "estimated_diameter_min": 480.9944085582,
            "estimated_diameter_max": 1075.5361943335
        }
    },
    "is_potentially_hazardous_asteroid": true,
    "close_approach_data": [
        {
            "close_approach_date": "2020-06-12",
            "close_approach_date_full": "2020-Jun-12 10:50",
            "epoch_date_close_approach": 1591959000000,
            "relative_velocity": {
                "kilometers_per_second": "19.6143821019",
                "kilometers_per_hour": "70611.7755668238",
                "miles_per_hour": "43875.41132373"
            },
            "miss_distance": {
                "astronomical": "0.1374060924",
                "lunar": "53.4509699436",
                "kilometers": "20555658.748063188",
                "miles": "12772694.0683524744"
            },
            "orbiting_body": "Venus"
        },
        {
            "close_approach_date": "2020-06-20",
            "close_approach_date_full": "2020-Jun-20 15:17",
            "epoch_date_close_approach": 1592666220000,
            "relative_velocity": {
                "kilometers_per_second": "17.0639807267",
                "kilometers_per_hour": "61430.3306160772",
                "miles_per_hour": "38170.4184875286"
            },
            "miss_distance": {
                "astronomical": "0.3840744275",
                "lunar": "149.4049522975",
                "kilometers": "57456716.275469425",
                "miles": "35701947.972251065"
            },
            "orbiting_body": "Earth"
        }
    ],
    "orbital_data": {
        "orbit_id": "2",
        "orbit_determination_date": "2020-08-26 07:12:23",
        "first_observation_date": "2020-08-11",
        "last_observation_date": "2020-08-26",
        "data_arc_in_days": 15,
        "observations_used": 14,
        "orbit_uncertainty": "8",
        "minimum_orbit_intersection": ".0431684",
        "jupiter_tisserand_invariant": "2.884",
        "epoch_osculation": "2459075.5",
        "eccentricity": ".8020472551313631",
        "semi_major_axis": "2.523896763049399",
        "inclination": "8.576642345114939",
        "ascending_node_longitude": "142.7847709759026",
        "orbital_period": "1464.555407998991",
        "perihelion_distance": ".4996122920106962",
        "perihelion_argument": "65.14621945207739",
        "aphelion_distance": "4.548181234088101",
        "perihelion_time": "2458990.561064609255",
        "mean_anomaly": "20.87870255618849",
        "mean_motion": ".2458083852845587",
        "equinox": "J2000",
        "orbit_class": {
            "orbit_class_type": "APO",
            "orbit_class_description": "Near-Earth asteroid orbits which cross the Earth’s orbit similar to that of 1862 Apollo",
            "orbit_class_range": "a (semi-major axis) > 1.0 AU; q (perihelion) < 1.017 AU"
        }
    },
    "is_sentry_object": false
}